<?xml version='1.0' encoding='utf-8'?>
<gpx xmlns="http://www.topografix.com/GPX/1/1" version="1.1" creator="route-generator"><metadata><name>жк Тракия 285в → Технополис, Пловдив</name></metadata><trk><name>жк Тракия 285в → Технополис</name><trkseg><trkpt lat="42.138241" lon="24.798166" /><trkpt lat="42.138097" lon="24.798081" /><trkpt lat="42.138309" lon="24.797037" /><trkpt lat="42.138357" lon="24.796830" /><trkpt lat="42.138590" lon="24.796757" /><trkpt lat="42.138688" lon="24.796697" /><trkpt lat="42.139009" lon="24.796403" /><trkpt lat="42.139049" lon="24.796368" /><trkpt lat="42.139695" lon="24.795799" /><trkpt lat="42.139745" lon="24.795755" /><trkpt lat="42.140472" lon="24.795115" /><trkpt lat="42.140528" lon="24.795066" /><trkpt lat="42.140608" lon="24.794995" /><trkpt lat="42.140555" lon="24.794880" /><trkpt lat="42.140526" lon="24.794818" /><trkpt lat="42.140182" lon="24.794078" /><trkpt lat="42.139986" lon="24.793704" /><trkpt lat="42.139855" lon="24.793427" /><trkpt lat="42.139539" lon="24.792753" /><trkpt lat="42.139305" lon="24.792302" /><trkpt lat="42.139267" lon="24.792145" /><trkpt lat="42.139175" lon="24.791788" /><trkpt lat="42.139093" lon="24.791456" /><trkpt lat="42.139037" lon="24.791287" /><trkpt lat="42.139047" lon="24.791257" /><trkpt lat="42.139181" lon="24.791173" /><trkpt lat="42.139198" lon="24.791168" /><trkpt lat="42.139402" lon="24.791012" /><trkpt lat="42.139526" lon="24.790878" /><trkpt lat="42.139592" lon="24.790806" /><trkpt lat="42.139768" lon="24.790582" /><trkpt lat="42.140279" lon="24.789770" /><trkpt lat="42.140310" lon="24.789721" /><trkpt lat="42.140759" lon="24.789006" /><trkpt lat="42.140824" lon="24.788902" /><trkpt lat="42.141135" lon="24.788431" /><trkpt lat="42.141179" lon="24.788364" /><trkpt lat="42.141274" lon="24.788221" /><trkpt lat="42.141335" lon="24.788131" /><trkpt lat="42.141768" lon="24.787486" /><trkpt lat="42.141962" lon="24.787196" /><trkpt lat="42.142251" lon="24.786757" /><trkpt lat="42.142289" lon="24.786720" /><trkpt lat="42.142468" lon="24.786539" /><trkpt lat="42.142680" lon="24.786412" /><trkpt lat="42.142929" lon="24.786252" /><trkpt lat="42.143118" lon="24.786130" /><trkpt lat="42.143258" lon="24.786055" /><trkpt lat="42.143447" lon="24.785922" /><trkpt lat="42.143569" lon="24.785844" /><trkpt lat="42.143581" lon="24.785738" /><trkpt lat="42.143587" lon="24.785650" /><trkpt lat="42.143582" lon="24.785567" /><trkpt lat="42.143558" lon="24.785470" /><trkpt lat="42.143502" lon="24.785307" /><trkpt lat="42.143454" lon="24.785192" /><trkpt lat="42.143253" lon="24.784763" /><trkpt lat="42.143006" lon="24.784248" /><trkpt lat="42.142224" lon="24.782270" /><trkpt lat="42.142191" lon="24.782172" /><trkpt lat="42.141823" lon="24.781196" /><trkpt lat="42.141898" lon="24.781145" /><trkpt lat="42.142012" lon="24.781066" /><trkpt lat="42.142133" lon="24.781391" /></trkseg></trk><wpt lat="42.138241" lon="24.798166"><name>жк Тракия 285в</name></wpt><wpt lat="42.142133" lon="24.781391"><name>Технополис, Пловдив</name></wpt></gpx>